#aV2023  2 21  0  0  0.00000000     288 DD+AD WGS84 FIT  NGA
## 2250 172800.00000000   300.00000000 59996 0.0000000000000
+   32     1  2  3  4  5  6  7  8  9 10 11 12 13 14 15 16 17
+         18 19 20 21 22 23 24 25 26 27 28 29 30 31 32  0  0
+          0  0  0  0  0  0  0  0  0  0  0  0  0  0  0  0  0
+          0  0  0  0  0  0  0  0  0  0  0  0  0  0  0  0  0
+          0  0  0  0  0  0  0  0  0  0  0  0  0  0  0  0  0
++         2  2  2  2  2  2  2  2  2  2  2  2  2  2  2  2  2
++         2  2  2  2  2  2  2  2  2  2  2  2  2  2  2  0  0
++         0  0  0  0  0  0  0  0  0  0  0  0  0  0  0  0  0
++         0  0  0  0  0  0  0  0  0  0  0  0  0  0  0  0  0
++         0  0  0  0  0  0  0  0  0  0  0  0  0  0  0  0  0
%c cc cc ccc ccc cccc cccc cccc cccc ccccc ccccc ccccc ccccc
%c cc cc ccc ccc cccc cccc cccc cccc ccccc ccccc ccccc ccccc
%f  0.0000000  0.000000000  0.00000000000  0.000000000000000
%f  0.0000000  0.000000000  0.00000000000  0.000000000000000
%i    0    0    0    0      0      0      0      0         0
%i    0    0    0    0      0      0      0      0         0
/*      NGA, ST. LOUIS,MO.                                  
/*   EPHEMERIS COMPUTED FROM 2 DAYS OF DATA                 
/*   EPOCHA v8 SMOOTHER                                     
/*   G2139 IERS2010 SATIGS SATAPC                           
*  2023  2 21  0 45  0.00000000
P  1  22268.684058  14466.004519   2922.933229    210.290819                    
V  1   2256.054632   3743.260517 -31864.930854     -0.041338                    
P  2 -23613.657206 -10424.343721  -5071.910976   -619.447426                    
V  2  -4709.588797  -6230.322906  31170.993850      0.026193                    
P  3  12826.053041  10588.801798  20613.833529   -360.597338                    
V  3  -3635.723570  26134.154156 -10985.593358      0.048133                    
P  4  21469.090256   2987.894551  15432.963766    -23.058085                    
V  4 -17444.310402   8985.300195  22429.172915      0.082990                    
P  5  -6179.883727 -23362.837917 -11050.703934   -116.696739                    
V  5   3265.812131 -13634.484818  27532.180040     -0.014609                    
P  6   6341.650879 -13406.656131  22094.136126    574.655573                    
V  6  22459.046920  16417.445545   3617.313858      0.040747                    
P  7  22002.494821   3447.664565 -14394.140523    237.164949                    
V  7  13912.818447  12919.606084  23166.459504     -0.072117                    
P  8  11871.351397  10850.022801 -21256.389008   -109.473220                    
V  8 -24044.262335  11822.078081  -7028.540660     -0.018179                    
P  9  24927.560162  -6777.213917   6206.816097   -214.399214                    
V  9  -6035.775882   5923.775084  30297.477479      0.071476                    
P 10 -11172.132772  19773.593563 -13333.087786    -25.567436                    
V 10   -235.471043 -17437.642126 -25632.246998     -0.016177                    
P 11  -6818.599950 -19984.297883  16143.162336   -109.803337                    
V 11  16989.396120  11532.201637  21432.889691     -0.104557                    
P 12 -11459.952513 -13229.444366  19726.112543   -342.818563                    
V 12   5674.235920 -25010.494787 -13191.366160     -0.046024                    
P 13  -3419.089814 -14713.672233 -22017.743107    479.379493                    
V 13  26503.103389  -7380.215549   1012.304543      0.060653                    
P 14  13358.270034 -17256.287243 -15045.075204    -22.218937                    
V 14   -375.058123  19338.189434 -22632.470894      0.092372                    
P 15 -13537.834219 -10007.312118 -21041.158938     15.251512                    
V 15  21582.987472 -14073.185786  -7080.171825      0.033377                    
P 16   1805.846728  24585.267546  -9545.498703   -519.131125                    
V 16  -4966.712904  11073.867733  28935.330654      0.017896                    
P 17  21773.920125 -13505.650677   7621.553513    701.306231                    
V 17   9202.002171  -1211.385781 -30059.194893      0.023269                    
P 18 -19849.425334     33.774556 -17715.602047   -149.224975                    
V 18 -17012.479350 -14655.019192  18890.794156     -0.159420                    
P 19  14202.192441 -15667.716086  15668.682506    280.449592                    
V 19  20010.451114  -4374.343944 -22455.316196      0.050928                    
P 20  -1198.685375 -26646.135205    432.187747    449.451588                    
V 20   3107.395448    331.869156  31297.421425     -0.023439                    
P 21  20649.848614  16530.707517  -4822.088390    154.105918                    
V 21  -6843.934699  -1682.759601 -30467.166069      0.001741                    
P 22 -10272.520546  16867.637500  18114.774487    431.170109                    
V 22 -21483.992522   5761.770616 -18153.753489      0.076228                    
P 23 -14626.929359   8681.137020 -20355.853907      7.061950                    
V 23   1087.580014 -25860.807383 -11947.728761      0.017271                    
P 24 -22041.297365 -15137.034835  -2005.499223    -82.315453                    
V 24   3499.734360  -1692.304892 -30749.470609     -0.158678                    
P 25 -15073.446276  -2256.940081  21445.073902    421.825301                    
V 25   2711.946514 -27864.038573   -741.077335      0.031744                    
P 26  -4614.121708  25519.138486   4707.166081    241.652461                    
V 26  -3595.851656  -6366.050938  30598.408093      0.002729                    
P 27   -154.032857  16070.585206 -21306.297002     97.549910                    
V 27 -24611.055624  10035.034340   8243.787012     -0.089509                    
P 28  -8083.693499  12856.897706  21757.318610     20.328794                    
V 28 -22941.748192 -15525.498678    643.806702      0.140225                    
P 29 -24881.220944   2284.033348   9073.332190   -587.207441                    
V 29  10217.432421  -5742.488020  29233.382155     -0.019944                    
P 30  14208.578502  -8451.330523 -20734.011679   -529.597529                    
V 30  20842.403627  16539.390948   7245.785311      0.013395                    
P 31  -5161.070193  14909.955937  21136.309221   -209.791828                    
V 31 -22164.619563 -16004.096902   6277.702272     -0.010188                    
P 32 -19033.915572  15850.030255   9474.666947   -402.355904                    
V 32 -11917.548656   2417.230988 -28687.019550     -0.114427                    
EOF
